OBJECT_NAME,OBJECT_ID,EPOCH,MEAN_MOTION,ECCENTRICITY,INCLINATION,RA_OF_ASC_NODE,ARG_OF_PERICENTER,MEAN_ANOMALY,EPHEMERIS_TYPE,CLASSIFICATION_TYPE,NORAD_CAT_ID,ELEMENT_SET_NO,REV_AT_EPOCH,BSTAR,MEAN_MOTION_DOT,MEAN_MOTION_DDOT
STARLINK-32943,2025-032U,2026-06-14T16:03:26.660448,15.27590845,.00036445,43.0012,148.2008,263.7669,96.2768,0,U,63023,999,7545,.81852103E-3,.2234E-3,0
STARLINK-32803,2025-032V,2026-06-14T15:57:56.130336,15.27586367,.0001346,43.0037,148.1666,280.9322,79.1378,0,U,63024,999,7529,.47290139E-3,.12776E-3,0
STARLINK-32926,2025-032W,2026-06-14T15:48:39.703968,15.27592952,.0004395,42.9789,148.1108,270.3827,89.6520,0,U,63025,999,7545,.75533307E-3,.20594E-3,0
STARLINK-32798,2025-034A,2026-06-15T05:37:58.613088,15.30206202,.00013992,53.1583,177.6644,81.1782,278.9378,0,U,63029,999,7384,.43384473E-3,.12514E-3,0
STARLINK-32779,2025-034B,2026-06-15T06:32:52.213920,15.34393206,.0001211,53.1590,177.9040,94.9517,265.1624,0,U,63030,999,7384,.43233042E-3,.14255E-3,0
STARLINK-32716,2025-034C,2026-06-15T07:02:13.710336,15.34381873,.0001106,53.1555,163.8224,81.3746,278.7382,0,U,63031,999,7404,.70931285E-3,.23651E-3,0
STARLINK-32776,2025-034D,2026-06-15T07:35:34.021536,15.34387097,.00013873,53.1575,163.9687,73.5176,286.5979,0,U,63032,999,7404,.51400392E-3,.17023E-3,0
STARLINK-32772,2025-034E,2026-06-15T07:21:53.956800,15.30209972,.00014076,53.1579,164.6215,91.1688,268.9474,0,U,63033,999,7403,.43632135E-3,.12589E-3,0
STARLINK-32830,2025-034F,2026-06-15T06:27:43.166304,15.31711518,.00008688,53.1578,164.3868,66.0725,294.0367,0,U,63034,999,7403,.49114965E-3,.14912E-3,0
STARLINK-32801,2025-034G,2026-06-15T07:14:22.125408,15.34415633,.00008671,53.1554,163.8784,102.4095,257.7005,0,U,63035,999,7403,.70386156E-3,.23491E-3,0
STARLINK-32818,2025-034H,2026-06-15T06:07:34.680000,15.30193097,.00017665,53.1585,165.0057,99.7497,260.3703,0,U,63036,999,7402,.3581546E-3,.10261E-3,0
STARLINK-32810,2025-034J,2026-06-15T06:29:02.062464,15.34389111,.00012027,53.1584,164.3941,99.3532,260.7606,0,U,63037,999,7403,.83109362E-3,.27798E-3,0
STARLINK-32812,2025-034K,2026-06-15T06:13:37.624800,15.30245944,.00006957,53.1583,165.0287,64.9204,295.1869,0,U,63038,999,7402,.10383724E-2,.30565E-3,0
STARLINK-32811,2025-034L,2026-06-15T06:47:14.545536,15.34383714,.00010202,53.1573,164.4675,64.0564,296.0544,0,U,63039,999,7403,.43677741E-3,.14402E-3,0
STARLINK-32832,2025-034M,2026-06-15T06:20:58.522272,15.31738656,.00013092,53.1579,164.3558,69.2196,290.8945,0,U,63040,999,7403,.56801489E-3,.17323E-3,0
STARLINK-32820,2025-034N,2026-06-15T06:06:04.478400,15.30172842,.00013132,53.1587,164.9970,83.8903,276.2247,0,U,63041,999,7402,.71836816E-3,.20959E-3,0
STARLINK-32795,2025-034P,2026-06-15T05:37:31.696032,15.34398222,.00012066,53.1586,164.1680,97.3388,262.7752,0,U,63042,999,7403,.3394779E-3,.1111E-3,0
STARLINK-32827,2025-034Q,2026-06-15T06:44:17.168928,15.34397572,.00010832,53.1587,176.5293,78.0195,282.0929,0,U,63043,999,7386,.339314E-3,.11104E-3,0
STARLINK-32735,2025-034R,2026-06-15T06:17:01.223808,15.34392810,.00009955,53.1566,176.4143,103.2187,256.8927,0,U,63044,999,7386,.79257076E-3,.26491E-3,0
STARLINK-32828,2025-034S,2026-06-15T06:05:19.857984,15.30196282,.00011652,53.1568,177.7767,90.8907,269.2227,0,U,63045,999,7384,.2071931E-3,.5781E-4,0
STARLINK-32738,2025-034T,2026-06-15T06:25:59.258208,15.34417830,.00006016,53.1589,164.3748,92.2397,267.8674,0,U,63046,999,7403,.52400887E-3,.17379E-3,0
STARLINK-32590,2025-034U,2026-06-15T06:09:06.391008,15.30221948,.00012817,53.1583,165.0121,68.9886,291.1252,0,U,63047,999,7401,.51987173E-3,.1508E-3,0
STARLINK-32790,2025-034V,2026-06-15T06:41:08.949984,15.34401017,.00012265,53.1568,164.4414,122.7604,237.3516,0,U,63048,999,7403,.56287198E-3,.18689E-3,0
STARLINK-32829,2025-034W,2026-06-15T06:41:15.727200,15.34392564,.00013652,53.1585,176.5182,81.0575,279.0582,0,U,63049,999,7386,.67695195E-3,.22559E-3,0
STARLINK-32816,2025-034X,2026-06-15T06:38:13.615872,15.34393330,.000099,53.1570,176.5023,91.5117,268.5999,0,U,63050,999,7386,.49602127E-3,.16416E-3,0
STARLINK-32835,2025-034Y,2026-06-15T06:20:02.927328,15.34395036,.00009772,53.1567,176.4305,90.6994,269.4120,0,U,63051,999,7386,.5488088E-3,.18208E-3,0
STARLINK-11550 [DTC],2025-035A,2026-06-15T05:29:21.881472,15.70868259,.00015306,43.0003,147.1948,248.8700,111.2004,0,U,63052,999,7656,.70299592E-3,.90855E-3,0
STARLINK-11563 [DTC],2025-035B,2026-06-14T21:59:12.608160,15.70846087,.0001638,43.0000,149.1564,273.2716,86.7964,0,U,63053,999,7640,.11344E-2,.147761E-2,0
STARLINK-11347 [DTC],2025-035C,2026-06-14T05:57:55.379232,15.70857150,.0000646,42.9980,153.6241,241.6774,118.4028,0,U,63054,999,7640,.16599E-2,.218389E-2,0
STARLINK-11558 [DTC],2025-035D,2026-06-14T06:13:01.711776,15.70900181,.0001269,42.9981,152.8158,224.2161,135.8605,0,U,63055,999,7630,.10899E-2,.142179E-2,0
STARLINK-11392 [DTC],2025-035E,2026-06-15T00:00:04.000320,15.70825301,.0001385,43.0003,148.9455,259.6352,95.3907,0,U,63056,999,601,.5040246E-4,.602E-4,0
STARLINK-11406 [DTC],2025-035F,2026-06-14T23:38:24.343008,15.70875938,.00022748,43.0014,148.8085,258.8635,101.1977,0,U,63057,999,7640,.10653743E-2,.138774E-2,0
STARLINK-11418 [DTC],2025-035G,2026-06-14T22:52:43.805856,15.70951960,.0002276,43.0012,149.4499,267.5024,92.5583,0,U,63058,999,7639,.14157E-2,.186211E-2,0
STARLINK-11509 [DTC],2025-035H,2026-06-15T04:43:40.959840,15.70957681,.00024822,42.9977,147.8316,285.7729,74.2865,0,U,63059,999,7643,.1071009E-2,.140015E-2,0
STARLINK-11403 [DTC],2025-035J,2026-06-13T06:41:33.543744,15.70862814,.0003257,43.0028,159.2423,266.1764,93.8731,0,U,63060,999,7625,.13943E-3,.17499E-3,0
STARLINK-11409 [DTC],2025-035K,2026-06-14T22:31:06.004416,15.70864587,.0001881,43.0012,149.3281,268.9876,91.0776,0,U,63061,999,7651,.11296E-2,.147243E-2,0
STARLINK-11412 [DTC],2025-035L,2026-06-15T00:00:04.000320,15.70836530,.00014463,43.0003,148.7912,253.7726,161.3582,0,U,63062,999,595,.74533228E-4,.9124E-4,0
STARLINK-11399 [DTC],2025-035M,2026-06-15T05:21:43.151040,15.70914043,.00010418,43.0010,147.1461,233.2109,126.8663,0,U,63063,999,7656,.11535981E-2,.150755E-2,0
STARLINK-11408 [DTC],2025-035N,2026-06-15T05:14:04.358400,15.70945505,.0001044,42.9991,147.1028,251.9567,108.1187,0,U,63064,999,7656,.91183303E-3,.118762E-2,0
STARLINK-33635,2025-035P,2026-06-15T06:28:15.788352,15.27583683,.00011179,43.0024,315.9750,274.7106,85.3618,0,U,63065,999,7465,.51637398E-3,.13976E-3,0
STARLINK-33622,2025-035Q,2026-06-15T02:54:01.872864,15.27566996,.00025848,42.9947,316.5699,260.0852,99.9707,0,U,63066,999,7463,.61830826E-3,.16785E-3,0
STARLINK-33628,2025-035R,2026-06-14T16:46:47.266752,15.27572658,.00023141,43.0030,319.4308,268.4524,91.6063,0,U,63067,999,7456,.82894892E-3,.22614E-3,0
STARLINK-33627,2025-035S,2026-06-14T16:35:39.832800,15.27604180,.00048526,43.0050,319.3724,281.4571,78.5736,0,U,63068,999,7455,.57730349E-3,.15673E-3,0
STARLINK-33620,2025-035T,2026-06-15T03:29:11.495616,15.27598760,.00019106,43.0045,316.7599,269.9967,90.0666,0,U,63069,999,7462,.78190054E-3,.21329E-3,0
STARLINK-33604,2025-035U,2026-06-15T02:32:02.637312,15.27600689,.00026833,42.9953,317.3259,278.9711,81.0837,0,U,63070,999,7461,.64368359E-3,.17505E-3,0
STARLINK-33624,2025-035V,2026-06-14T16:45:47.566944,15.27994074,.00017095,42.9999,315.9600,286.5940,73.4724,0,U,63071,999,7449,.85096486E-3,.23527E-3,0
STARLINK-33623,2025-035W,2026-06-14T21:40:19.860096,15.27605092,.0001987,43.0026,318.3836,282.5336,77.5293,0,U,63072,999,7459,.58519E-3,.15888E-3,0
STARLINK-33586,2025-035X,2026-06-15T03:06:31.112928,15.27606359,.00039832,43.0091,309.7081,274.9101,85.1296,0,U,63073,999,7471,.57211881E-3,.15529E-3,0
STARLINK-33605,2025-035Y,2026-06-15T03:03:16.846848,15.27598137,.00025179,43.0011,316.6195,266.9945,93.0619,0,U,63074,999,7462,.62890099E-3,.17094E-3,0
STARLINK-32839,2025-037A,2026-06-15T06:01:38.748288,14.98336222,.00029418,70.0013,108.5587,266.3796,93.7027,0,U,63077,999,7320,.27214733E-3,.3156E-4,0
STARLINK-32821,2025-037B,2026-06-15T06:01:24.575232,14.98333285,.00030645,70.0013,108.5542,264.8912,95.1897,0,U,63078,999,7319,.19118774E-3,.2189E-4,0
STARLINK-32817,2025-037C,2026-06-15T05:19:20.034624,14.98335239,.00033921,70.0007,108.4485,263.0010,97.0763,0,U,63079,999,7320,.16462328E-3,.1872E-4,0
STARLINK-32906,2025-037D,2026-06-15T06:25:41.331936,14.98334392,.00027233,70.0010,108.6102,269.8498,90.2349,0,U,63080,999,7321,.17110635E-3,.1949E-4,0
STARLINK-32895,2025-037E,2026-06-15T06:19:25.955904,14.98377688,.00035942,70.0014,108.6009,255.8727,104.2033,0,U,63081,999,7307,.12507673E-2,.14882E-3,0
STARLINK-32933,2025-037F,2026-06-15T05:43:36.906240,14.98329812,.00025502,70.0024,108.5067,256.2117,103.8758,0,U,63082,999,7315,.20496836E-3,.2353E-4,0
STARLINK-32932,2025-037G,2026-06-15T05:49:23.388384,14.98333660,.00030063,70.0011,108.5276,269.0848,90.9966,0,U,63083,999,7307,.40749064E-3,.4773E-4,0
STARLINK-32908,2025-037H,2026-06-15T05:37:20.330112,14.98352051,.00028342,70.0016,108.4936,264.9689,95.1146,0,U,63084,999,7307,.43573964E-3,.5113E-4,0
STARLINK-32505,2025-037J,2026-06-15T06:19:40.483200,14.98335013,.00036395,70.0008,108.5976,263.6213,96.4532,0,U,63085,999,7316,.21367674E-3,.2458E-4,0
STARLINK-32914,2025-037K,2026-06-15T05:43:22.601856,14.98331717,.00028106,70.0014,108.5059,267.6347,92.4490,0,U,63086,999,7321,.14900904E-3,.1685E-4,0
STARLINK-32918,2025-037L,2026-06-15T06:07:25.131072,14.98332849,.00034977,70.0013,108.5693,258.2645,101.8122,0,U,63087,999,7330,.17581413E-3,.2006E-4,0
STARLINK-32912,2025-037M,2026-06-15T06:37:40.215360,14.98320029,.00028149,70.0013,108.2427,276.0725,84.0113,0,U,63088,999,7332,.32843477E-3,.3827E-4,0
STARLINK-32910,2025-037N,2026-06-15T05:49:37.461216,14.98334403,.00029971,70.0009,108.5214,265.1654,94.9163,0,U,63089,999,7321,.13086898E-3,.1469E-4,0
STARLINK-32903,2025-037P,2026-06-15T06:31:25.148640,14.98326797,.00029074,70.0007,108.2299,266.6208,93.4619,0,U,63090,999,7308,-.83894787E-4,-.1094E-4,0
